COSMOS 2419 (714)       
1 28915U 05050A   16210.51989559 -.00000024  00000-0  00000-0 0  9993
2 28915  65.3382  76.7695 0016005 355.5309 172.6358  2.13110908 82430
COSMOS 2425 (716)       
1 29670U 06062A   16210.66883874 -.00000063  00000-0  10000-3 0  9992
2 29670  65.6154 315.7611 0019782 346.6572 352.4917  2.13105020 74632
COSMOS 2426 (717)       
1 29671U 06062B   16211.03391179 -.00000064  00000-0  10000-3 0  9998
2 29671  65.6317 315.8316 0018579 163.6354 316.1943  2.13103040 74653
COSMOS 2424 (715)       
1 29672U 06062C   16211.50760469 -.00000065  00000-0  10000-3 0  9994
2 29672  65.6166 315.7424 0018079 163.1150 136.3358  2.13102454 74659
COSMOS 2433 (720)       
1 32275U 07052A   16210.64604035 -.00000024  00000-0  10000-3 0  9992
2 32275  65.3554  76.5367 0001308 290.1666 223.5488  2.13104829 68157
COSMOS 2432 (719)       
1 32276U 07052B   16211.12773850 -.00000022  00000-0  10000-3 0  9997
2 32276  65.3679  76.5857 0011899 344.5591 132.4354  2.13104280 68169
COSMOS 2434 (721)       
1 32393U 07065A   16210.68923545 -.00000063  00000-0  00000-0 0  9990
2 32393  65.2314 315.0645 0005276 122.1959 316.3831  2.13102979 66861
COSMOS 2436 (723)       
1 32395U 07065C   16210.49616705 -.00000062  00000-0  10000-3 0  9991
2 32395  65.2461 315.1138 0015513 356.2998  26.1885  2.13103029 66796
COSMOS 2443 (725)       
1 33379U 08046B   16210.54454707 -.00000024  00000-0  10000-3 0  9990
2 33379  65.2838  75.9520 0016662 181.3511 159.0813  2.13101182 61012
COSMOS 2456 (730)       
1 36111U 09070A   16211.13832765  .00000081  00000-0  00000+0 0  9992
2 36111  64.1834 194.6282 0006488 295.9688 296.8760  2.13102995 51539
COSMOS 2457 (733)       
1 36112U 09070B   16211.17275780  .00000081  00000-0  00000+0 0  9995
2 36112  64.1655 194.5528 0006828 190.3581 198.9541  2.13101682 51543
COSMOS 2458 (734)       
1 36113U 09070C   16211.14250256  .00000081  00000-0  10000-3 0  9999
2 36113  64.1705 194.5597 0002769 292.1648 121.5266  2.13102034 51549
COSMOS 2459 (731)       
1 36400U 10007A   16210.60708413 -.00000024  00000-0  10000-3 0  9991
2 36400  65.2634  75.6839 0028698 355.8895 352.9411  2.13102397 49876
COSMOS 2461 (735)       
1 36401U 10007B   16211.34045578 -.00000020  00000-0  10000-3 0  9996
2 36401  65.2569  75.6392 0007793  67.9023  34.1310  2.13102530 49893
COSMOS 2460 (732)       
1 36402U 10007C   16211.40999848 -.00000020  00000-0  10000-3 0  9992
2 36402  65.2475  75.6124 0001717  58.7225 138.4387  2.13101929 49898
COSMOS 2465 (737)       
1 37138U 10041B   16211.17115384 -.00000065  00000-0  00000+0 0  9990
2 37138  64.8323 315.1994 0036593 170.0718 321.6724  2.13093971 45966
COSMOS 2464 (736)       
1 37139U 10041C   16210.83329787 -.00000064  00000-0  00000+0 0  9996
2 37139  64.8397 315.2070 0021474  15.1794  41.6180  2.13102706 45961
COSMOS 2471 (701K)      
1 37372U 11009A   16210.70888284 -.00000023  00000-0  00000+0 0  9993
2 37372  65.2449  75.5861 0006645 233.3421 278.6758  2.13102840 42151
COSMOS 2474 (742)       
1 37829U 11055A   16210.55837358  .00000090  00000-0  00000-0 0  9994
2 37829  64.5081 195.0775 0010821 254.2507 114.9074  2.13102010 37529
COSMOS 2476 (744)       
1 37867U 11064A   16210.63816284  .00000089  00000-0  00000+0 0  9997
2 37867  64.4878 195.1550 0019750 248.4814 227.7419  2.13102095 36878
COSMOS 2477 (745)       
1 37868U 11064B   16210.65794274  .00000089  00000-0  00000-0 0  9995
2 37868  64.4960 195.1953 0017760 249.9811  60.6972  2.13101969 36822
COSMOS 2475 (743)       
1 37869U 11064C   16211.16940733  .00000082  00000-0  00000+0 0  9998
2 37869  64.5038 195.1668 0023102 273.4635  25.7464  2.13102186 36848
COSMOS 2485 (747)       
1 39155U 13019A   16210.56037911  .00000090  00000-0  00000-0 0  9998
2 39155  64.6574 195.1165 0019977 243.6764 217.9913  2.13102149 25349
COSMOS 2492 (754)       
1 39620U 14012A   16211.03150506 -.00000022  00000-0  10000-3 0  9998
2 39620  65.1349  75.6072 0014936 339.2842 157.1587  2.13103422 18305
COSMOS 2500 (755)       
1 40001U 14032A   16210.85420145 -.00000023  00000-0  00000+0 0  9999
2 40001  65.0763  75.6357 0004790 195.7927  28.3167  2.13103093 16519
COSMOS 2501 (702K)      
1 40315U 14075A   16211.13215341 -.00000066  00000-0  00000+0 0  9993
2 40315  64.6038 316.6413 0017627 230.8297   7.5367  2.13101740 12921
COSMOS 2514 (751)       
1 41330U 16008A   16210.98471293 -.00000023  00000-0  00000+0 0  9994
2 41330  64.8753  75.8561 0007797 210.8948 292.4779  2.13103644  3681
COSMOS 2516 (753)       
1 41554U 16032A   16210.49634130 -.00000063  00000-0  00000-0 0  9991
2 41554  64.7846 316.3490 0011808 216.9920 166.3402  2.13101620  1288
